Tenant Name,Address,Region,Record Type,Primary Category,Status,CloseDate,OpenDate,openclosed,Last Reviewed/Verified Date,Tenant 18-Digit ID,Account: Account 18-Digit ID,Longitude,Latitude
10 Corso Como,1 Fulton Street,SSS,Shopping,Souvenir & Gift Shops,Former,3/17/2020,9/13/2018,closed,3/31/2020,a154100000APCueAAH,0014100001yU0gYAAS,-74.0032893,40.7067825
Financier Patisserie,1 Hanover Square,BID SE,Restaurant/Bar,Quick Eats,Former,6/25/2020,,closed,,a1541000008jSmIAAU,0014100001dLDZQAA4,-74.009734,40.7046145
Thunder Bun,1 New York Plaza,BID SE,Restaurant/Bar,Quick Eats,Former,3/31/2021,7/13/2015,closed,1/19/2021,a1541000008jRzQAAU,0014100001dLFoUAAW,-74.0120105,40.7021004
Cappone's Salumeria,1 New York Plaza,BID SE,Restaurant/Bar,Quick Eats,Former,7/19/2021,3/17/2016,closed,1/15/2021,a1541000008jS00AAE,0014100001dLFpaAAG,-74.0120105,40.7021004
Haru Restaurant & Sushi Bar,1 Wall Street Court,BID SE,Restaurant/Bar,Full Service Dining,Former,10/19/2020,1/1/2007,closed,10/1/2020,a1541000008jRw4AAE,0014100001dLBjiAAG,-74.008597,40.705192
Xi'an Famous Foods,10 Liberty Place,BID NE,Restaurant/Bar,Quick Eats,Former,10/1/2020,11/26/2018,closed,11/28/2018,a152M00000AjW0HQAV,0012M000021ycfKQAQ,-74.009347,40.709193
Financier Patisserie,10 Liberty Street,BID SE,Restaurant/Bar,Quick Eats,Former,9/30/2020,4/1/2006,closed,9/30/2020,a1541000008jRvzAAE,0014100001dLDvNAAW,-74.00808246,40.70738715
Aroma Espresso Bar,100 Church Street,BID NW,Restaurant/Bar,Quick Eats,Former,12/29/2020,2/15/2012,closed,1/4/2021,a1541000008jSEEAA2,0014100001dLC3iAAG,-74.0101583,40.7133292
Nonfinito Gallery,108 South Street,SSS,Point of Interest,Museums/Galleries,Former,10/1/2020,6/1/2018,closed,2/4/2019,a152M00000BPTp4QAH,0012M000024qcL5QAI,-74.002063,40.707101
Cafe Plaza Deli,11 Broadway,BID SW,Restaurant/Bar,Quick Eats,Former,11/9/2020,,closed,11/11/2020,a1541000008jSNLAA2,0014100001dLBUZAA4,-74.0140249,40.7052799
Poke Bar,11 Park Place,BID NW,Restaurant/Bar,Quick Eats,Former,6/16/2021,6/1/2019,closed,6/17/2019,a152M00001feStuQAE,0012M00002C7e7PQAR,-74.0081867,40.7133359
Milk Bar,110 Wall Street,BID SE,Restaurant/Bar,Quick Eats,Former,10/1/2020,4/17/2017,closed,10/1/2020,a1541000008jS3DAAU,0014100001dLFuxAAG,-74.0063968,40.7049122
Fuku,110 Wall Street,BID SE,Restaurant/Bar,Quick Eats,Former,10/1/2020,6/20/2017,closed,10/1/2020,a1541000008jS3bAAE,0014100001dLFwMAAW,-74.0063968,40.7049122
The Mailroom,110 Wall Street,BID SE,Restaurant/Bar,Drinks & Barfare,Former,11/4/2020,9/5/2017,closed,11/4/2020,a1541000008jS3kAAE,0014100001dLFwbAAG,-74.0063968,40.7049122
HSBC,110 William Street,BID NE,Personal/Business Services,ATM & Banking,Former,7/1/2020,,closed,8/17/2020,a1541000008jSxgAAE,0014100001dLBS1AAO,-74.0067282,40.7087737
Subway,111 Broadway,BID SW,Restaurant/Bar,Quick Eats,Former,9/9/2021,3/9/2009,closed,9/9/2021,a1541000008jTqpAAE,0014100001dLEHxAAO,-74.011961,40.708834
Jos. A. Bank,111 Broadway,BID SW,Shopping,Clothing,Former,8/3/2020,3/30/2011,closed,8/21/2020,a1541000008jRvjAAE,0014100001dLBUaAAO,-74.011961,40.708834
Angel Body Work,112 John Street,BID NE,Personal/Business Services,Hair Salons & Barber Shops; Spas,Former,9/30/2020,,closed,9/30/2020,a1541000008jSD0AAM,0014100001dLE0WAAW,-74.00578067,40.70759299
NYU Medhattan Urgent Care,112 Trinity Place,BID SW,Local Resources,Medical,Former,9/30/2020,10/12/2011,closed,10/1/2020,a1541000008jTUeAAM,0014100001dLDtFAAW,-74.01191803,40.70971938
HSBC,115 Broadway,BID SW,Personal/Business Services,ATM & Banking,Former,7/1/2020,9/26/2016,closed,8/17/2020,a1541000008jS2OAAU,0014100001dLFuFAAW,-74.0109198,40.7087133
Front Art Space,118 Chambers Street,TBS,Point of Interest,Museums/Galleries,Current,10/4/2020,,closed,1/11/2021,a1541000008jSowAAE,0014100001dLFofAAG,-74.0086093,40.7150231
Spring Nail Spa N.Y.,119 Fulton Street,BID NE,Personal/Business Services,Nail Salons; Spas,Former,11/16/2020,11/23/2009,closed,11/17/2020,a1541000008jToKAAU,0014100001dLBQuAAO,-74.00680117,40.71023003
The Paris Cafe´,119 South Street,SSS,Restaurant/Bar,Full Service Dining,Former,5/1/2020,,closed,5/5/2020,a1541000008jTv6AAE,0014100001dLCkaAAG,-74.0015425,40.7073164
Casa Toscana,12 John Street,BID NE,Restaurant/Bar,Quick Eats,Former,9/30/2020,7/24/2017,closed,9/30/2020,a1541000008jSOYAA2,0014100001dLCEjAAO,-74.0091249,40.7098261
W New York - Downtown,123 Washington Street,BID SW,Hotel,,Former,10/13/2020,8/16/2010,closed,10/3/2020,a1541000008jRwxAAE,0014100001dLEJPAA4,-74.01385368,40.70894198
Living Room Bar & Terrace,123 Washington Street,BID SW,Restaurant/Bar,Drinks & Barfare,Former,10/13/2020,9/1/2010,closed,10/2/2020,a1541000008jRwyAAE,0014100001dLF5KAAW,-74.01385368,40.70894198
BentOn Cafe,123 William Street,BID NE,Restaurant/Bar,Quick Eats,Former,11/16/2020,8/8/2017,closed,11/17/2020,a1541000008jUSDAA2,0014100001dLFycAAG,-74.0071476,40.7093248
Open Kitchen,123 William Street,BID NE,Restaurant/Bar,Quick Eats,Former,3/31/2021,7/21/2015,closed,,a1541000008jTWZAA2,0014100001dLFKVAA4,-74.0071476,40.7093248
Menya Jiro,123 William Street,BID NE,Restaurant/Bar,Quick Eats,Former,6/30/2021,8/9/2017,closed,,a1541000008jTJOAA2,0014100001dLCi9AAG,-74.0071476,40.7093248
New Fresh Cleaners,124 Nassau Street,BID NE,Personal/Business Services,Dry Cleaning,Former,9/30/2020,6/24/2015,closed,1/13/2020,a1541000008jTPcAAM,0014100001dLBuwAAG,-74.00680535,40.71093271
District Bagels,125 Fulton Street,BID NE,Restaurant/Bar,Quick Eats,Former,3/1/2021,10/23/2019,closed,10/23/2019,a152M00002GxZZWQA3,0012M00002Gbly5QAB,-74.00738509,40.71013309
PNC Bank ATM,125 Maiden Lane,BID NE,Personal/Business Services,ATM & Banking,Former,10/30/2020,8/13/2015,closed,11/4/2020,a1541000009ofwrAAA,0014100001mc6weAAA,-74.0062499,40.7066092
The Beekman Pub,126 Nassau Street,BID NE,Restaurant/Bar,Full Service Dining,Canceled,6/19/2020,,closed,6/16/2020,a1541000008jTtRAAU,0014100001dLCK4AAO,-74.006595,40.711139
Vintry Wine & Whiskey,13 South William Street,BID SE,Restaurant/Bar,Full Service Dining,Former,6/1/2021,11/23/2009,closed,6/14/2021,a1541000008jUB2AAM,0014100001dLEZyAAO,-74.010121,40.704502
Courtyard by Marriott Downtown Manhattan/World Trade Center,133 Greenwich Stre,BID SW,Hotel,,Former,7/20/2021,11/16/2016,closed,7/20/2021,a1541000008jS2gAAE,0014100001dLFuPAAW,-74.0126397,40.7093565
Smashburger,136 William Street,BID NE,Restaurant/Bar,Quick Eats,Former,9/18/2020,3/17/2015,closed,9/18/2020,a1541000008jTmpAAE,0014100001dLBVEAA4,-74.0065778,40.70932506
Sweets By CHLOE,14 Fulton Street,SSS,Restaurant/Bar,Quick Eats,Former,9/16/2021,9/13/2018,closed,9/16/2021,a154100000APCuoAAH,0014100001yTxofAAC,-74.003574,40.706682
by CHLOE,14 Fulton Street,SSS,Restaurant/Bar,Quick Eats,Former,9/16/2021,9/13/2018,closed,9/16/2021,a154100000APBNLAA5,0014100001dLBU3AAO,-74.003574,40.706682
Cynthia Rowley,14 Fulton Street,SSS,Shopping,Clothing,Former,8/17/2020,10/23/2018,closed,1/13/2021,a154100000ANKrMAAX,0014100001yTJugAAG,-74.003574,40.706682
Lee Lee's Forest,14 Fulton Street,SSS,Shopping,Clothing,Former,8/17/2020,,closed,1/13/2021,a1541000008jTCaAAM,0014100001dLBU8AAO,-74.003574,40.706682
Alexis Bittar,14 Fulton Street,SSS,Shopping,Jewelers,Former,1/15/2021,7/18/2019,closed,1/15/2021,a152M00001uGeOVQA0,0012M00002CiFoJQAV,-74.003574,40.706682
Feed Your Soul Cafe,14 Wall Street,BID SE,Restaurant/Bar,Quick Eats,Former,9/1/2021,6/14/2016,closed,1/14/2021,a1541000008jS0PAAU,0014100001dLC5fAAG,-74.010828,40.707583
Bank of America ATM,140 Nassau Street,BID NE,Personal/Business Services,ATM & Banking,Former,2/10/2021,,closed,11/3/2020,a1541000008jSGeAAM,0014100001dLBPhAAO,-74.00625975,40.71131232
Pronto Pizza,141 Fulton Street,BID NE,Restaurant/Bar,Quick Eats,Former,10/30/2020,5/4/2017,closed,11/4/2020,a1541000008jTcBAAU,0014100001dLC2aAAG,-74.00850286,40.71050004
Moxy NYC Downtown,143 Fulton Street,BID NE,Hotel,,Former,5/1/2021,10/31/2018,closed,6/9/2021,a154100000AQ69sAAD,0014100001vCiUeAAK,-74.008167,40.710524
Recreation,143 Fulton Street,BID NE,Restaurant/Bar,Drinks & Barfare,Former,5/1/2021,10/31/2018,closed,6/9/2021,a154100000AQ6FqAAL,0014100001yUClDAAW,-74.008167,40.710524
Brooklyn Bridge Bike Rent,145 Nassau Street,BID NE,Local Resources,Transportation,Former,9/30/2020,6/2/2016,closed,9/30/2020,a1541000008jS0MAAU,0014100001dLFqMAAW,-74.0067,40.71165
Antonella's Barbershop,145 Nassau Street,BID NE,Personal/Business Services,Hair Salons & Barber Shops,Former,9/30/2020,,closed,9/30/2020,a1541000008jSDOAA2,0014100001dLFwXAAW,-74.0067,40.71165
Pita Express,15 Ann Street,BID NE,Restaurant/Bar,Quick Eats,Former,7/1/2021,1/1/1998,closed,7/13/2021,a1541000008jTaFAAU,0014100001dLBkUAAW,-74.00785928,40.71093489
G.D. Watch and Jewelry Repairs,15 Maiden Lane,BID NE,Shopping,Jewelers,Former,4/26/2021,6/7/2018,closed,4/29/2021,a1541000008jSpUAAU,0014100001dLBS3AAO,-74.00895755,40.7098112
Latte Art,15 Stone Street,BID SE,Restaurant/Bar,Quick Eats,Former,3/3/2021,12/31/2008,closed,9/30/2020,a1541000008jTA9AAM,0014100001dLEFRAA4,-74.012089,40.7041
Modell's Sporting Goods,150 Broadway,BID NE,Shopping,Sporting Goods & Athletic Wear,Former,9/1/2020,,closed,9/10/2020,a1541000008jTLnAAM,0014100001dLC6TAAW,-74.0100953,40.7091841
I Love New York Gifts,150 Broadway,BID NE,Shopping,Souvenir & Gift Shops,Former,12/31/2020,,closed,1/13/2021,a152M00000AG6JzQAL,0012M000025ysFmQAI,-74.0100953,40.7091841
Tribeca Hardware,154 Chambers Street,TBS,Personal/Business Services,Hardware & Locksmiths,Former,8/31/2020,,closed,8/24/2020,a1541000008jTybAAE,0014100001dLCfWAAW,-74.01002277,40.71577786
Mariachi's,156 Chambers Street,TBS,Restaurant/Bar,Full Service Dining,Former,6/26/2020,6/26/2016,closed,6/27/2020,a1541000008jTGjAAM,0014100001dLE4OAAW,-74.01007232,40.71580045
Chase Bank,156 Front Street,BID NE,Personal/Business Services,ATM & Banking,Former,5/13/2020,12/15/2009,closed,5/13/2020,a1541000008jRwcAAE,0014100001dLEaVAAW,-74.005795,40.706101
Milk + Honey,160 Broadway,BID NE,Restaurant/Bar,Quick Eats,Former,11/16/2020,9/1/2016,closed,11/17/2020,a152M00002BqyOqQAJ,0012M00002EpCLqQAN,-74.01008417,40.70945182
Lane Jewelers,164 Pearl Street,BID SE,Shopping,Jewelers,Former,9/30/2020,,closed,9/30/2020,a1541000008jT9yAAE,0014100001dLC8nAAG,-74.007216,40.705889
Dante's Gourmet Foods,166 William Street,BID NE,Restaurant/Bar,Quick Eats,Former,9/30/2020,,closed,9/18/2020,a1541000008jScJAAU,0014100001dLBQAAA4,-74.00570642,40.71021986
The Assemblage,17 John Street,BID NE,Hotel,,Former,6/22/2020,4/16/2018,closed,6/22/2020,a1541000008jTtIAAU,0014100001dLCIQAA4,-74.00880803,40.70988819
GAP,170 Broadway,BID NE,Shopping,Clothing,Former,12/31/2020,3/25/2015,closed,1/13/2021,a1541000008jSpoAAE,0014100001mc6vJAAQ,-74.0099212,40.7095628
Trading Post,170 John Street,SSS,Restaurant/Bar,Full Service Dining,Former,7/1/2020,7/2/2013,closed,1/15/2021,a1541000008jTxvAAE,0014100001dLBfLAAW,-74.00428412,40.70594799
Fedoroff's Steaks,173 Broadway,BID NW,Restaurant/Bar,Quick Eats,Former,1/1/2021,5/7/2019,closed,5/7/2019,a152M00001KITrbQAH,0012M000029q5R6QAI,-74.01019385,40.71000993
18|8 Fine Men's Salons,18 Pine Street,BID SE,Personal/Business Services,Hair Salons & Barber Shops,Former,7/1/2020,10/27/2010,closed,,a1541000008jS5FAAU,0014100001dLEHPAA4,-74.009875,40.707769
Kusmi Tea,185 Greenwich Street,BID NW,Restaurant/Bar,Quick Eats,Former,7/1/2020,12/19/2016,closed,,a1541000008jS2nAAE,0014100001dLFtKAAW,-74.0113762,40.7113982
Sweetcatch Poke,185 Greenwich Street,BID NW,Restaurant/Bar,Quick Eats,Former,6/30/2021,7/8/2019,closed,7/14/2021,a152M00000B0zyBQAR,0012M00002Cgjr6QAB,-74.0113762,40.7113982
Bose,185 Greenwich Street,BID NW,Shopping,Electronics,Former,7/1/2020,8/16/2016,closed,8/17/2020,a1541000008jS1EAAU,0014100001dLFt2AAG,-74.0113762,40.7113982
Brooklyn Bleu,185 Greenwich Street,BID NW,Shopping,Jewelers,Former,7/1/2020,9/9/2019,closed,9/9/2019,a152M00002GWpQwQAL,0012M00002FqGDpQAN,-74.0113762,40.7113982
Innisfree,185 Greenwich Street,BID NW,Shopping,Beauty & Fragrances,Former,12/1/2020,6/21/2019,closed,12/10/2020,a152M00001fcfkvQAA,0012M00002B5DU6QAN,-74.0113762,40.7113982
Havaianas,185 Greenwich Street,BID NW,Shopping,Shoes,Former,12/31/2020,5/18/2017,closed,1/11/2021,a1541000008jS3QAAU,0014100001dLFsZAAW,-74.0113762,40.7113982
Dior Cosmetics,185 Greenwich Street,BID NW,Shopping,Beauty & Fragrances,Former,1/22/2021,11/8/2016,closed,1/22/2021,a1541000008jS2eAAE,0014100001dLFsTAAW,-74.0113762,40.7113982
Invicta,185 Greenwich Street,BID NW,Shopping,Jewelers,Former,1/29/2021,8/17/2016,closed,2/3/2021,a1541000008jS1RAAU,0014100001dLFsvAAG,-74.0113762,40.7113982
House of Samsonite,185 Greenwich Street,BID NW,Shopping,Leather & Luggage,Former,1/29/2021,8/23/2016,closed,2/3/2021,a1541000008jS25AAE,0014100001dLFsyAAG,-74.0113762,40.7113982
Designer Eyes,185 Greenwich Street,BID NW,Shopping,Eyewear,Former,3/1/2021,9/21/2016,closed,3/4/2021,a1541000008jS2MAAU,0014100001dLFtHAAW,-74.0113762,40.7113982
Victoria's Secret,185 Greenwich Street,BID NW,Shopping,Clothing,Former,4/30/2021,9/19/2016,closed,5/19/2021,a1541000008jS2KAAU,0014100001dLFsnAAG,-74.0113762,40.7113982
Fossil,185 Greenwich Street,BID NW,Shopping,Jewelers,Former,6/30/2021,8/17/2016,closed,7/14/2021,a1541000008jS1PAAU,0014100001dLFspAAG,-74.0113762,40.7113982
TOUS,185 Greenwich Street,BID NW,Shopping,Jewelers,Former,6/30/2021,8/17/2016,closed,7/14/2021,a1541000008jS1pAAE,0014100001dLFtIAAW,-74.0113762,40.7113982
Camper,185 Greenwich Street,BID NW,Shopping,Shoes,Former,6/30/2021,8/17/2016,closed,,a1541000008jS1JAAU,0014100001dLFssAAG,-74.0113762,40.7113982
Minamoto Kitchoan,185 Greenwich Street,BID NW,Shopping,Candy & Chocolate,Former,6/30/2021,8/31/2016,closed,7/12/2021,a1541000008jS2CAAU,0014100001dLFtDAAW,-74.0113762,40.7113982
Solstice Sunglasses,185 Greenwich Street,BID NW,Shopping,Eyewear,Former,6/30/2021,4/4/2017,closed,7/12/2021,a1541000008jS37AAE,0014100001dLFq7AAG,-74.0113762,40.7113982
Nunu Chocolates,185 Greenwich Street,BID NW,Shopping,Candy & Chocolate,Former,6/30/2021,4/5/2018,closed,7/14/2021,a1541000008jS4LAAU,0014100001dLFt8AAG,-74.0113762,40.7113982
Moving Visions Dance,19 Murray Street,TBS,Local Resources,Recreational & Youth Activities,Former,10/4/2020,,closed,10/4/2020,a1541000008jTMfAAM,0014100001dLDkuAAG,-74.00821613,40.71363446
Montessori School of Manhattan,2 Gold Street,BID NE,Local Resources,Education,Former,10/1/2020,,closed,10/1/2020,a1541000008jTM7AAM,0014100001dLEEOAA4,-74.006707,40.707302
Santander Bank,2 Gold Street,BID NE,Personal/Business Services,ATM & Banking,Former,4/15/2021,,closed,5/20/2021,a1541000008jTj6AAE,0014100001dLEXHAA4,-74.006707,40.707302
Le Pain Quotidien,2 River Terrace,BPC,Restaurant/Bar,Full Service Dining,Former,7/31/2020,7/13/2010,closed,8/11/2020,a1541000008jRwuAAE,0014100001dLEzqAAG,-74.0165239,40.7154964
Fidelity Investments,1 Liberty Plaza,BID NW,Personal/Business Services,Investor,Current,,8/1/2020,opened,8/17/2020,a1541000008jSlsAAE,0014100001dLBwNAAW,-74.0108873,40.7096863
Inday,1 New York Plaza,BID SE,Restaurant/Bar,Quick Eats,Current,,9/27/2021,opened,9/29/2021,a152M00002PeEcKQAV,0012M00002aKirQQAS,-74.0120455,40.7021941
Sonder Battery Park,1 West Street,BID SW,Hotel,,Current,,4/1/2021,opened,4/26/2021,a152M00002NIMkFQAX,0012M00002WJo4UQAT,-74.0161541,40.7055977
Life Time Studio Battery Park,1 West Street,BID SW,Personal/Business Services,Fitness Centers,Current,,4/23/2021,opened,4/19/2021,a152M00002NAcutQAD,0012M00002WIegGQAT,-74.0161541,40.7055977
The View at Battery Park,10 Battery Place,BPK,Restaurant/Bar,Full Service Dining,Current,,6/22/2020,opened,1/15/2021,a152M00002JQoehQAD,0012M00002MzEu7QAF,-74.015714,40.702997
New York Health & Racquet Club,2 Water Street,BID SE,Personal/Business Services,Fitness Centers,Former,9/1/2020,1/1/1987,closed,9/9/2020,a1541000008jTQwAAM,0014100001dLBizAAG,-74.012756,40.702732
Bright Beginnings,10 Fulton Street,SSS,Local Resources,Education,Current,,11/9/2020,opened,11/12/2020,a152M00002KwSvfQAF,0012M00002R4pRGQAZ,-74.0036275,40.706565
Casa Cipriani,10 South Street,SSS,Hotel,,Current,,8/23/2021,opened,9/7/2021,a152M00002OC7N2QAL,0012M00002YsLQGQA3,-74.01165071,40.70098785
Joe Coffee,10 South Street,SSS,Restaurant/Bar,Quick Eats,Current,,6/30/2021,opened,7/12/2021,a152M00002OC7A8QAL,0012M00002YsL89QAF,-74.01165071,40.70098785
Casa Cipriani Club,10 South Street,SSS,Restaurant/Bar,Drinks & Barfare; Full Service Dining,Current,,9/7/2021,opened,,a152M00002OaWSWQA3,0012M00002YuGn4QAF,-74.01165071,40.70098785
Ampia,100 Broad Street,BID SE,Restaurant/Bar,Full Service Dining,Current,,7/6/2020,opened,1/15/2021,a152M00002Jg4gYQAR,0012M00002Naa5dQAB,-74.012096,40.703459
Chinah Kitchen,100 Maiden Lane,BID SE,Restaurant/Bar,Quick Eats,Current,,3/10/2021,opened,3/10/2021,a152M00002McmNZQAZ,0012M00002UDILuQAP,-74.00716084,40.70666035
Jackass Burrito,102 North End Avenue,NBPC,Restaurant/Bar,Quick Eats,Current,,2/24/2021,opened,2/24/2021,a152M00002MMGKoQAP,0012M00002U69MvQAJ,-74.0153365,40.7149555
Anassa Taverna,102 North End Avenue,NBPC,Restaurant/Bar,Full Service Dining,Current,,10/11/2021,opened,,a152M00002PSmk2QAD,0012M00002aJmeTQAS,-74.0153365,40.7149555
Harrys Pizza,104 Trinity Place,BID SW,Restaurant/Bar,Quick Eats,Current,,3/5/2020,opened,1/11/2021,a152M00002IKGHoQAP,0012M00002JsqvLQAR,-74.0120054,40.7095464
Lazzaro Carved Meat & Rotisserie,104 Trinity Place,BID SW,Restaurant/Bar,Quick Eats,Current,,3/5/2020,opened,1/11/2021,a152M00002IKGJuQAP,0012M00002Jsqx2QAB,-74.0120054,40.7095464
Bonefade Barbers,105 Nassau Street,BID NE,Personal/Business Services,Hair Salons & Barber Shops,Current,,4/9/2021,opened,4/5/2021,a152M00002N0p6nQAB,0012M00002VYz2aQAD,-74.0073535,40.71069
Dragon Horn Bubble Tea,106 Greenwich Street,BID SW,Restaurant/Bar,Quick Eats,Current,,6/11/2020,opened,1/28/2021,a152M00002JKaSRQA1,0012M00002MxMQAQA3,-74.0136127,40.7085336
Calderón Ruiz,106 South Street,SSS,Point of Interest,Museums/Galleries,Current,,9/7/2021,opened,8/23/2021,a152M00002OyZLkQAN,0012M00002aHRvhQAG,-74.0022133,40.7070271
Hydra Studios,120 Wall Street,BID SE,Personal/Business Services,Fitness Centers,Current,,1/4/2021,opened,1/19/2021,a152M00002LXZBvQAP,0012M00002SO0ZyQAL,-74.00595512,40.70476125
Pace Gourmet Deli,122 Nassau Street,BID NE,Restaurant/Bar,Quick Eats,Current,,8/18/2020,opened,8/18/2020,a152M000028nctGQAQ,0012M00002Nel4lQAB,-74.006767,40.7108429
Skinos Mediterranean,123 Washington Street,BID SW,Restaurant/Bar,Full Service Dining,Current,,9/13/2021,opened,,a152M00002PSmagQAD,0012M00002aJmb0QAC,-74.0138424,40.709192
123 Marketplace,123 William Street,BID NE,Restaurant/Bar,Quick Eats,Current,,5/7/2021,opened,5/13/2021,a152M00002NTm49QAD,0012M00002X9vxIQAR,-74.00713905,40.7093246
Jokr,123 William Street,BID NE,Storefront Commercial,,Current,,8/30/2021,opened,8/16/2021,a152M00002OmfDIQAZ,0012M00002aGviAQAS,-74.00713905,40.7093246
Easy Wag,124 Nassau Street,BID NE,Shopping,"Pets Store, Supplies & Services",Current,,8/2/2021,opened,8/3/2021,a152M00002OYYkPQAX,0012M00002Yu5MbQAJ,-74.00667191,40.71083545
Insomnia Cookies,125 Church Street,TBS,Restaurant/Bar,Quick Eats,Current,,5/3/2021,opened,5/6/2021,a152M00002NMUj3QAH,0012M00002WKrKhQAL,-74.0084612,40.714011
Zucker's Bagels & Smoked Fish,125 Fulton Street,BID NE,Restaurant/Bar,Quick Eats,Current,,5/15/2021,opened,5/17/2021,a152M00002NVaqzQAD,0012M00002XAdQ9QAL,-74.0072816,40.7100965
Bodega Gran Via,13 South William Street,BID SE,Restaurant/Bar,Drinks & Barfare,Current,,6/24/2021,opened,,a152M00002NkojYQAR,0012M00002XvEsOQAV,-74.0104283,40.7045946
Bathtub Whiskey,13 South William Street,BID SE,Restaurant/Bar,Drinks & Barfare,Former,9/1/2021,12/10/2020,opened/closed,9/1/2021,a152M00002LHXPFQA5,0012M00002R7gQ7QAJ,,
Grubbs Takeaway,136 William Street,BID NE,Restaurant/Bar,Quick Eats,Current,,3/2/2021,opened,3/3/2021,a152M00002ImYFrQAN,0012M00002UCNT4QAP,-74.00648983,40.7092713
Beatnic,14 Fulton Street,SSS,Restaurant/Bar,Quick Eats,Current,,9/18/2021,opened,9/16/2021,a152M00002PSlN1QAL,0012M00002aJlN4QAK,-74.0037324,40.7067012
Osteria del Porto,140 Beekman Street,SSS,Restaurant/Bar,Full Service Dining,Current,,4/26/2021,opened,4/27/2021,a152M00002NIMcVQAX,0012M00002WJo0sQAD,-74.0027497,40.7073854
Omar's Mediterranean Cuisine,15 Ann Street,BID NE,Restaurant/Bar,Quick Eats,Current,,7/26/2021,opened,,a152M00002ODOIFQA5,0012M00002YsRZbQAN,-74.00781438,40.7110119
Stone Smoke Shop,15 Stone Street,BID SE,Shopping,Cigars,Current,,4/26/2021,opened,4/29/2021,a152M00002NJdErQAL,0012M00002WJyJLQA1,-74.0120738,40.7041156
16 Handles,155 Chambers Street,TBS,Restaurant/Bar,Quick Eats,Current,,8/24/2020,opened,1/11/2021,a152M00002K1z33QAB,0012M00002O4i0qQAB,-74.010036,40.715996
TD Podiatry,156 William Street,BID NE,Local Resources,Medical,Current,,11/2/2020,opened,11/4/2020,a152M00002KsLpKQAV,0012M00002Pq3yPQAR,-74.0058727,40.7100193
BeU,160 Broadway,BID NE,Personal/Business Services,Fitness Centers,Current,,6/22/2021,opened,6/22/2021,a152M00002NoSNtQAN,0012M00002XwyotQAB,-74.01002963,40.70937965
Sonder City Hall Park,17 John Street,BID NE,Hotel,,Current,,4/1/2021,opened,4/27/2021,a152M00002NIMmpQAH,0012M00002WJo57QAD,-74.00868458,40.70999965
Simba Mix,173 Broadway,BID NW,Restaurant/Bar,Quick Eats,Current,,3/15/2021,opened,3/22/2021,a152M00002MhalvQAB,0012M00002VXMwSQAX,-74.0100513,40.7099516
New York Gifts,174 Broadway,BID NE,Shopping,Souvenir & Gift Shops,Current,,9/18/2020,opened,9/30/2020,a152M00002KScHrQAL,0012M00002PN085QAD,-74.0097798,40.709839
Citibank,180 Water Street,BID NE,Personal/Business Services,ATM & Banking,Current,,9/1/2020,opened,9/30/2020,a152M00002KSc4iQAD,0012M00002PN01rQAD,-74.0053605,40.7068168
Gansevoort Liberty Market,185 Greenwich Street,BID NW,Restaurant/Bar,Quick Eats,Current,,12/7/2020,opened,12/7/2020,a152M00002LGpfiQAD,0012M00002R7TUVQA3,-74.0116669,40.7136477
Haagen Dazs,185 Greenwich Street,BID NW,Restaurant/Bar,Quick Eats,Current,,6/2/2021,opened,6/2/2021,a152M00002NcgVbQAJ,0012M00002XtxjIQAR,-74.0116669,40.7136477
Golden Bar,185 Greenwich Street,BID NW,Shopping,Clothing,Current,,10/12/2020,opened,10/12/2020,a152M00002KXt9YQAT,0012M00002Pnqq6QAB,-74.0116669,40.7136477
I Love NY Gifts,185 Greenwich Street,BID NW,Shopping,Souvenir & Gift Shops,Current,,10/26/2020,opened,10/26/2020,a152M00002KnhypQAB,0012M00002Pp0HxQAJ,-74.0116669,40.7136477
Chick-fil-A,200 Broadway,BID NE,Restaurant/Bar,Quick Eats,Former,10/30/2020,3/6/2019,closed,1/12/2021,a152M00000SnO3MQAV,0012M0000260u63QAA,-74.0089171,40.7104473
Brik & Clik,185 Greenwich Street,BID NW,Shopping,Souvenir & Gift Shops,Current,,11/20/2020,opened,11/20/2020,a152M00002L5GMXQA3,0012M00002R5WTMQA3,-74.0116669,40.7136477
Forme Life,185 Greenwich Street,BID NW,Shopping,Sporting Goods & Athletic Wear,Current,,12/12/2020,opened,12/14/2020,a152M00002LJxFNQA1,0012M00002SMCMWQA5,-74.0116669,40.7136477
Sunsations Eyes,185 Greenwich Street,BID NW,Shopping,Eyewear,Current,,5/13/2021,opened,5/17/2021,a152M00002NVbL9QAL,0012M00002XAeacQAD,-74.0116669,40.7136477
Omega Jewelers,19 Dutch Street,BID NE,Shopping,Jewelers,Current,,4/9/2021,opened,4/9/2021,a1541000008jUJmAAM,0014100001dLG59AAG,-74.006595,40.711139
healthynest,19 Warren Street,TBS,Shopping,Children's Store,Current,,8/23/2021,opened,9/7/2021,a152M00002Nf2UYQAZ,0012M00002XuXHIQA3,-74.00782838,40.7138946
Gan Accademia Preschool,2 Gold Street,BID NE,Local Resources,Education,Current,,5/25/2021,opened,5/25/2021,a152M00002NZ7zrQAD,0012M00002XBkpUQAT,-74.0069841,40.7073611
Bluestone Lane,2 River Terrace,BPC,Restaurant/Bar,Quick Eats,Current,,3/24/2021,opened,3/24/2021,a152M00002Mn3NjQAJ,0012M00002VXbuTQAT,-74.01575056,40.71573285
Dntl Bar,20 Broad Street,BID SE,Local Resources,Medical,Current,,3/1/2021,opened,3/3/2021,a152M00002ImZ3RQAV,0012M00002UCOwvQAH,-74.01145862,40.70660575
Blue Bottle Coffee,20 Broad Street,BID SE,Restaurant/Bar,Quick Eats,Current,,7/6/2020,opened,1/13/2021,a152M00002JjR2DQAV,0012M00002NbFQcQAN,-74.0113826,40.7067997
Krispy Kreme,200 Broadway,BID NE,Restaurant/Bar,Quick Eats,Current,,7/13/2020,opened,7/15/2020,a152M00002JjRo3QAF,0012M00002Nb6QHQAZ,-74.0089171,40.7104473
Sant Ambroeus,200 Vesey Street,WFC,Restaurant/Bar,Full Service Dining,Current,,11/9/2020,opened,11/9/2020,a152M00002KuiSjQAJ,0012M00002PnrSwQAJ,-74.01486605,40.71355765
Clean Market,200 Vesey Street,WFC,Shopping,Grocery & Convenience,Current,,9/28/2020,opened,1/11/2021,a152M00002KS0DTQA1,0012M00002PMqysQAD,-74.01486605,40.71355765
Caravan Uyghur Cuisine,200 Water Street,BID NE,Restaurant/Bar,Quick Eats,Current,,7/1/2020,opened,6/23/2020,a152M00002JQnX6QAL,0012M00002Mz4D2QAJ,-74.0067575,40.7073413
Capo Capo Cafe,21 Fulton Street,SSS,Restaurant/Bar,Quick Eats,Current,,6/4/2021,opened,6/4/2021,a152M00002NdznzQAB,0012M00002Xu9HVQAZ,-74.0036624,40.7071343
PupCulture,21 Murray Street,TBS,Shopping,"Pets Store, Supplies & Services",Current,,6/28/2021,opened,7/9/2021,a152M00002OBERdQAP,0012M00002Ys8K9QAJ,-74.0081911,40.71376365
Courtyard Downtown Financial District,215 Pearl Street,BID NE,Hotel,,Current,,9/7/2021,opened,9/7/2021,a152M00002JgbjWQAR,0012M00002NaeeWQAR,-74.006472,40.7072689
Residence Inn Downtown Manhattan/Financial District,215 Pearl Street,BID NE,Hotel,,Current,,10/1/2021,opened,9/9/2021,a152M00002JgbkZQAR,0012M00002NaeeXQAR,-74.006472,40.7072689
Santander Bank,222 Broadway,BID NE,Personal/Business Services,ATM & Banking,Current,,4/16/2021,opened,4/12/2021,a152M00002MmHg7QAF,0012M00002WHj9iQAD,-74.00839314,40.710852
Carbon Health,225 Liberty Street,WFC,Local Resources,Urgent Care / Hospital,Current,,9/7/2020,opened,1/14/2021,a152M00002KD7mdQAD,0012M00002PKguiQAD,-74.01543606,40.71227205
Adam Grooming Atelier,225 Liberty Street,WFC,Personal/Business Services,Hair Salons & Barber Shops,Current,,5/27/2021,opened,5/27/2021,a152M00002NaSLqQAN,0012M00002XCIccQAH,-74.01543606,40.71227205
Tagmo,226 Front Street,SSS,Restaurant/Bar,Full Service Dining,Current,,9/17/2021,opened,9/8/2021,a152M00002PM2BYQA1,0012M00002aJ2rwQAC,-74.00219903,40.70768195
Seaport House,229 Front Street,SSS,Restaurant/Bar,Full Service Dining,Current,,11/22/2020,opened,1/4/2021,a152M00000BPTmyQAH,0012M000024qcHmQAI,-74.002011,40.707505
SaksWorks,230 Vesey Street,WFC,Personal/Business Services,Flexible Office Spaces,Current,,9/6/2021,opened,8/10/2021,a152M00002NN7A9QAL,0012M00002WKv2xQAD,-74.0087501,40.7114441
Cicci Di Carne,230 Vesey Street,WFC,Restaurant/Bar,Quick Eats,Current,,7/5/2021,opened,7/8/2021,a152M00002OAakdQAD,0012M00002YrdTMQAZ,-74.0087501,40.7114441
Adam Lippes,230 Vesey Street,WFC,Shopping,Clothing,Current,,3/15/2021,opened,3/16/2021,a152M00002Meve1QAB,0012M00002UESjgQAH,-74.0087501,40.7114441
Norwegian Wool,230 Vesey Street,WFC,Shopping,Clothing,Current,,9/7/2021,opened,9/7/2021,a152M00002PKlUtQAL,0012M00002aIzxkQAC,-74.0087501,40.7114441
Thai Farm Kitchen,261 Water Street,SSS,Restaurant/Bar,Full Service Dining,Former,6/3/2021,6/19/2020,opened/closed,6/3/2021,a152M00002JNCv9QAH,0012M00002MxhVWQAZ,-74.00172361,40.7082435
Lil Chef Mama,27 Cliff Street,BID NE,Restaurant/Bar,Full Service Dining,Current,,4/30/2021,opened,5/17/2021,a152M00002NVbAfQAL,0012M00002XAeBlQAL,-74.00534991,40.70848115
Daily Goods,270 Broadway,TBS,Restaurant/Bar,Quick Eats,Current,,9/7/2021,opened,9/8/2021,a152M00002PM25zQAD,0012M00002aJ2nkQAC,-74.00699576,40.71427395
Indeed Innovation,275 Water Street,SSS,Storefront Commercial,,Current,,7/19/2021,opened,7/20/2021,a152M00002ONyAzQAL,0012M00002Yt1MtQAJ,-74.00098715,40.7085476
Gold Studios,277 Water Street,SSS,Storefront Commercial,,Current,,7/19/2021,opened,7/20/2021,a152M00002ONy93QAD,0012M00002Yt1L2QAJ,-74.00089705,40.7085598
Alamo Drafthouse,28 Liberty Street,BID SE,Point of Interest,"Theaters, Cinemas & Performing Arts",Coming Soon,,11/15/2021,opened,9/29/2021,a152M00002PeEFVQA3,0012M00002aKhFRQA0,-74.0145067,40.7110691
The Green Door Beauty Spa,28 Water Street,BID SE,Personal/Business Services,Nail Salons; Spas,Current,,11/4/2020,opened,8/4/2021,a152M00002OZqjRQAT,0012M00002YuCCSQA3,-74.0111038,40.7032803
787 Coffee Co.,30 Broad Street,BID SE,Restaurant/Bar,Quick Eats,Current,,1/19/2021,opened,1/19/2021,a152M00002LsyHGQAZ,0012M00002U2kO2QAJ,-74.011905,40.7062033
Amaranth,30 Park Place,BID NW,Shopping,Florists,Current,,8/16/2021,opened,8/18/2021,a152M00002NmBAgQAN,0012M00002XvTNBQA3,-74.00899,40.7129906
Spectrum,30 Warren Street,TBS,Shopping,Electronics,Current,,11/30/2020,opened,11/17/2020,a152M00002L3VzQQAV,0012M00002R5DDcQAN,-74.0138587,40.716797
Peaches Low Country Kitchen,34 Cliff Street,BID NE,Restaurant/Bar,Quick Eats,Current,,11/23/2020,opened,11/17/2020,a152M00002L3VpaQAF,0012M00002R5D38QAF,-74.004898,40.7082751
Allure Nail Salon,39 John Street,BID NE,Personal/Business Services,Nail Salons,Current,,6/1/2021,opened,6/28/2021,a152M00002NrsljQAB,0012M00002XxaTcQAJ,-74.003929,40.7058528
Burte Lash & Nail,39 John Street,BID NE,Personal/Business Services,Eyebrows; Nail Salons,Current,,8/2/2021,opened,8/6/2021,a152M00002ObncsQAB,0012M00002YuN3RQAV,-74.003929,40.7058528
Matto Espresso,39 John Street,BID NE,Restaurant/Bar,Quick Eats,Current,,4/26/2021,opened,,a152M00002N01x7QAB,0012M00002VYdKCQA1,-74.003929,40.7058528
2 Bros. Pizza,39 John Street,BID NE,Restaurant/Bar,Quick Eats,Current,,6/14/2021,opened,6/14/2021,a152M00002NkqM2QAJ,0012M00002XvHBsQAN,-74.003929,40.7058528
Split Eights,40 Exchange Place,BID SE,Restaurant/Bar,Drinks & Barfare,Current,,10/23/2020,opened,1/15/2021,a152M00002KpV8OQAV,0012M00002PpYm9QAF,-74.0103947,40.7059245
New Street Barber Shop,42 Broadway,BID SE,Personal/Business Services,Hair Salons & Barber Shops,Former,,10/1/2020,opened,10/1/2020,a1541000008jTPjAAM,0014100001dLCMmAAO,-74.0126029,40.7059797
Suited,45 John Street,BID NE,Restaurant/Bar,Quick Eats,Current,,7/13/2020,opened,7/13/2020,a152M00002JjDYJQA3,0012M00002NawRfQAJ,-74.0079162,40.7093194
The Migrant Kitchen,48 Stone Street,BID SE,Restaurant/Bar,Full Service Dining,Current,,12/16/2020,opened,1/15/2021,a152M00002LFW7eQAH,0012M00002R6a3hQAB,-74.011576,40.7040261
Sumi Eyelashes,49 Nassau Street,BID NE,Personal/Business Services,Eyebrows,Current,,12/21/2020,opened,1/11/2021,a152M00000BLwaUQAT,0012M00002SZvbUQAT,-74.00923315,40.70894885
7-Eleven,50 Murray Street,BID NW,Restaurant/Bar,Quick Eats,Current,,6/8/2021,opened,6/8/2021,a152M00002NewnWQAR,0012M00002XuSGyQAN,-74.0113336,40.7149221
Nail Spy,51 Murray Street,TBS,Personal/Business Services,Nail Salons,Current,,3/31/2021,opened,4/5/2021,a152M00002N0qRyQAJ,0012M00002VZ4CIQA1,-74.0094222,40.7142983
Gems on Maiden,55 Nassau Street,BID NE,Shopping,Jewelers,Current,,11/16/2020,opened,11/4/2020,a152M00002KsLl3QAF,0012M00002Pq3qvQAB,-74.0090249,40.7090284
Scoops & Snacks,56 Pine Street,BID SE,Restaurant/Bar,Quick Eats,Current,,8/8/2020,opened,1/13/2021,a152M00002K1QYxQAN,0012M00002O4cssQAB,-74.008381,40.706772
P.F. Chang's To-Go,60 Fulton Street,BID NE,Restaurant/Bar,Quick Eats,Current,,1/29/2021,opened,1/6/2021,a152M00002Kvrz7QAB,0012M00002R4iu1QAB,-74.009063,40.710887
Lashes Tribeca,60 Warren Street,TBS,Personal/Business Services,Eyebrows,Current,,12/1/2020,opened,1/11/2021,a152M00000BLwSGQA1,0012M00002SZvQKQA1,-74.0093916,40.7149282
3 Times,66 Pearl Street,BID SE,Restaurant/Bar,Quick Eats,Current,,7/16/2021,opened,7/20/2021,a152M00002ONyH2QAL,0012M00002Yt1SDQAZ,-74.0107329,40.7035582
Biryani Kitchen,67 Wall Street,BID SE,Restaurant/Bar,Quick Eats,Current,,1/18/2021,opened,1/19/2021,a152M00002LXZ3hQAH,0012M00002SO0VqQAL,-74.0082226,40.7055953
ManiCare,69 Murray Street,TBS,Personal/Business Services,Massage,Current,,9/1/2020,opened,1/11/2021,a152M00002KSZ9HQAX,0012M00002PMx67QAD,-74.01031038,40.71471305
Double Smoke Choice,70 Fulton Street,BID NE,Shopping,Cigars,Current,,11/9/2020,opened,11/12/2020,a152M00002KwQkaQAF,0012M00002R4mcsQAB,-74.005466,40.7089365
Mint House at 70 Pine,70 Pine Street,BID SE,Hotel,,Current,,1/27/2021,opened,1/27/2021,a152M00002M0tKPQAZ,0012M00002ScB2DQAV,-74.00770967,40.7064543
Spear Physical Therapy,70 Pine Street,BID SE,Local Resources,Medical,Current,,9/28/2020,opened,1/13/2021,a152M00002KTB5GQAX,0012M00002PmG0dQAF,-74.00770967,40.7064543
SAGA,70 Pine Street,BID SE,Restaurant/Bar,Full Service Dining,Current,,8/24/2021,opened,8/18/2021,a152M00002IMfLIQA1,0012M00002L2KL8QAN,-74.0077715,40.7065047
Brooklyn Beef N' Cheese,70 Pine Street,BID SE,Restaurant/Bar,Quick Eats,Current,,9/16/2020,opened,1/13/2021,a152M00002KHXOUQA5,0012M00002PLItRQAX,-74.00770967,40.7064543
Overstory,70 Pine Street,BID SE,Restaurant/Bar,Drinks & Barfare,Current,,8/24/2021,opened,8/18/2021,a152M00002OpCnLQAV,0012M00002aH6wYQAS,-74.00770967,40.7064543
Salt & Pepper,71 Nassau Street,BID NE,Restaurant/Bar,Quick Eats,Current,,7/13/2020,opened,7/15/2020,a152M00002JjQuYQAV,0012M00002Nb5doQAB,-74.008546,40.709758
Homemade by Miriam,74 Warren Street,TBS,Restaurant/Bar,Quick Eats,Current,,6/12/2020,opened,1/28/2021,a152M00002K0SihQAF,0012M00002O4ZJ0QAN,-74.01010077,40.71524033
Nara Sushi,76 Pearl Street,BID SE,Restaurant/Bar,Quick Eats,Current,,1/1/2021,opened,1/12/2021,a152M00000BMYs2QAH,0012M00002Sa6kpQAB,-74.0104551,40.7037504
Cafe Hestia,80 Maiden Lane,BID SE,Restaurant/Bar,Quick Eats,Current,,5/17/2021,opened,5/17/2021,a152M00002NVar0QAD,0012M00002XAdawQAD,-74.0078158,40.7073222
Five Guys,80 Maiden Lane,BID SE,Restaurant/Bar,Quick Eats,Current,,9/7/2021,opened,,a152M00002PKlLcQAL,0012M00002aIzwvQAC,-74.0078158,40.7073222
Danbangg,80 Nassau Street,BID NE,Restaurant/Bar,Quick Eats,Current,,9/17/2021,opened,9/17/2021,a152M00002PTTXaQAP,0012M00002aJrW2QAK,-74.0079711,40.7098824
The Wall Street Hotel,82 Wall Street,BID SE,Hotel,,Coming Soon,,12/1/2021,opened,9/13/2021,a152M00002OaVzoQAF,0012M00002YuFPIQA3,-74.0075518,40.7054119
Smyth Tribeca,85 West Broadway,TBS,Hotel,,Current,,8/2/2021,opened,8/2/2021,a152M00002OYb0ZQAT,0012M00002Yu80CQAR,-74.0092238,40.7152534
Chop&Go,87 John Street,BID NE,Restaurant/Bar,Quick Eats,Current,,10/26/2020,opened,10/29/2020,a152M00002KoxHWQAZ,0012M00002PpWHSQA3,-74.003929,40.7058528
7-Eleven,88 Greenwich Street,BID SW,Restaurant/Bar,Quick Eats,Current,,3/6/2020,opened,1/11/2021,a152M00002IKG8SQAX,0012M00002JsqrTQAR,-74.0143621,40.7081175
Wattle Cafe,88 Greenwich Street,BID SW,Restaurant/Bar,Quick Eats,Current,,10/19/2020,opened,1/11/2021,a152M00002KnhciQAB,0012M00002PozxlQAB,-74.01407336,40.70791245
Nassau St. Convenience Smoke Shop,88 Nassau Street,BID NE,Shopping,Cigars,Current,,7/23/2021,opened,7/26/2021,a152M00002OSalwQAD,0012M00002YtVKUQA3,-74.00776418,40.7100079
Gorillas,90 West Street,BID SW,Storefront Commercial,,Current,,8/30/2021,opened,8/16/2021,a152M00002OmfC0QAJ,0012M00002aGvh2QAC,-74.01435151,40.70999235
Siena Pizza & Cannoli,94 Greenwich Street,BID SW,Restaurant/Bar,Quick Eats,Current,,10/5/2020,opened,1/11/2021,a152M00002KpVC1QAN,0012M00002PpYmAQAV,-74.0137437,40.7080709
Charles Schwab,96 Broadway,BID SE,Personal/Business Services,Investor,Current,,4/19/2021,opened,4/21/2021,a1541000008jSQAAA2,0014100001dLBUTAA4,-74.00952857,40.7066014
American Beauty Salon,98 William Street,BID NE,Personal/Business Services,Hair Salons & Barber Shops,Current,,10/19/2020,opened,10/26/2020,a152M00002KngnaQAB,0012M00002PoyZeQAJ,-74.0072883,40.7087143
Orangetheory Fitness,98 William Street,BID NE,Personal/Business Services,Fitness Centers,Current,,11/21/2020,opened,12/1/2020,a152M00002KScLUQA1,0012M00002PN0AfQAL,-74.0072883,40.7087143
QCNY,Governors Island,BPK,Personal/Business Services,Massage; Spas,Current,,10/1/2021,opened,9/7/2021,a152M00002OPtePQAT,0012M00002YtC9hQAF,-74.01820132,40.6887692
Momofuku Ssäm Bar,Pier 17,SSS,Restaurant/Bar,Full Service Dining,Current,,4/22/2021,opened,4/19/2021,a152M00002MplR1QAJ,0012M00002VYOfVQAX,-74.00201136,40.7058275
Mister Dips,Pier 17,SSS,Restaurant/Bar,Quick Eats,Current,,5/27/2021,opened,5/26/2021,a152M00002MplTCQAZ,0012M00002VYOr9QAH,-74.00201136,40.7058275
Wetzel's Pretzels,200 Broadway,BID NE,Restaurant/Bar,Quick Eats,Former,12/31/2020,3/23/2016,closed,,a1541000008jS05AAE,0014100001dLFpdAAG,-74.0089171,40.7104473
The Great American Bagel Bakery,200 Broadway,BID NE,Restaurant/Bar,Quick Eats,Former,12/31/2020,6/12/2017,closed,1/22/2021,a1541000008jS3XAAU,0014100001dLFwBAAW,-74.0089171,40.7104473
Polarn O. Pyret,200 Chambers Street,TBS,Shopping,Clothing,Former,11/9/2020,12/2/2011,closed,,a1541000008jTahAAE,0014100001dLFN1AAO,-74.011958,40.716078
The Chubby Princess,200 Water Street,BID NE,Restaurant/Bar,Full Service Dining,Former,6/23/2020,11/17/2017,closed,6/23/2020,a1541000008jTxGAAU,0014100001dLE4NAAW,-74.0067575,40.7073413
Plaza Deli,200 Water Street,BID NE,Restaurant/Bar,Quick Eats,Former,9/30/2020,,closed,9/30/2020,a1541000008jTaXAAU,0014100001dLBoQAAW,-74.0067575,40.7073413
Artsee Eyewear,200 West Street,NBPC,Shopping,Eyewear,Former,9/30/2020,12/8/2011,closed,10/2/2020,a1541000008jRxBAAU,0014100001dLFN3AAO,-74.01477833,40.71512288
DITA Eyewear,21 Fulton Street,SSS,Shopping,Eyewear,Former,12/31/2020,3/14/2018,closed,8/25/2020,a1541000008jSewAAE,0014100001dLFmgAAG,-74.003666,40.707136
Spot Canine Club,21 Murray Street,TBS,Shopping,"Pets Store, Supplies & Services",Former,10/4/2020,,closed,10/4/2020,a1541000008jToHAAU,0014100001dLEYkAAO,-74.00831067,40.71365619
Ningbo Cafe,21 South End Avenue,BPC,Restaurant/Bar,Full Service Dining,Former,5/22/2020,3/7/2018,closed,5/22/2020,a1541000008jTSlAAM,0014100001dLFptAAG,-74.016842,40.713273
New York Sports Club,217 Broadway,BID NW,Personal/Business Services,Fitness Centers,Former,1/1/2021,,closed,2/17/2021,a1541000008jTRXAA2,0014100001dLBjhAAG,-74.00855974,40.71167906
Staples,217 Broadway,BID NW,Shopping,Office Supplies & Equipment,Former,4/1/2021,,closed,2/19/2021,a1541000008jTosAAE,0014100001dLCAkAAO,-74.00855974,40.71167906
Financier Patisserie,22 Cortlandt Street,BID NW,Restaurant/Bar,Quick Eats,Former,8/11/2020,12/31/2019,closed,10/13/2020,a152M00002JjKHPQA3,0014100001dLBuKAAW,-74.01105306,40.70959625
Century 21 Department Stores,22 Cortlandt Street,BID NW,Shopping,Department Stores,Former,12/1/2020,,closed,2/9/2021,a1541000008jSPXAA2,0014100001dLBdFAAW,-74.01105306,40.70959625
Bin 220,220 Front Street,SSS,Restaurant/Bar,Drinks & Barfare,Former,10/1/2020,1/1/2006,closed,1/3/2019,a1541000008jRvmAAE,0014100001dLE3GAAW,-74.002233,40.707526
Jack's Stir Brew Coffee,220 Front Street,SSS,Restaurant/Bar,Quick Eats,Former,3/1/2021,1/1/2006,closed,3/1/2021,a1541000008jRvqAAE,0014100001dLE09AAG,-74.002233,40.707526
Pret A Manger,222 Broadway,BID NE,Restaurant/Bar,Quick Eats,Former,3/25/2021,7/20/2017,closed,4/14/2021,a1541000008jS3eAAE,0014100001dLFwSAAW,-74.0083944,40.7108734
Skinny Pizza,225 Liberty Street,WFC,Restaurant/Bar,Quick Eats,Former,6/30/2021,6/3/2014,closed,7/12/2021,a1541000008jRyNAAU,0014100001dLFciAAG,-74.015486,40.7123253
Fuku,225 Liberty Street,WFC,Restaurant/Bar,Quick Eats,Former,7/1/2021,1/16/2018,closed,7/12/2021,a1541000008jSp1AAE,0014100001dLFcjAAG,-74.015486,40.7123253
Pink,225 Liberty Street,WFC,Shopping,Clothing,Former,7/1/2020,10/16/2019,closed,8/17/2020,a152M00002GuJfQQAV,0014100001dLE6fAAG,-74.015486,40.7123253
Flowers by Yasmine,225 Liberty Street,WFC,Shopping,Florists,Former,7/31/2020,7/14/2016,closed,7/20/2020,a1541000008jSnKAAU,0014100001dLCf7AAG,-74.015486,40.7123253
Made Fresh Daily,226 Front Street,SSS,Restaurant/Bar,Quick Eats,Former,1/15/2021,11/10/2008,closed,1/15/2021,a1541000008jRwEAAU,0014100001dLCkHAAW,-74.00214295,40.70760005
Northern Tiger,230 Vesey Street,WFC,Restaurant/Bar,Quick Eats,Former,9/1/2020,3/18/2015,closed,,a1541000008jRytAAE,0014100001dLFhJAAW,-74.0154149,40.7131304
Paul Smith,230 Vesey Street,WFC,Shopping,Clothing,Former,7/1/2020,3/25/2015,closed,8/17/2020,a1541000008jRz0AAE,0014100001dLFmrAAG,-74.0154149,40.7131304
Herm?s,230 Vesey Street,WFC,Shopping,Beauty & Fragrances,Former,7/1/2020,3/26/2015,closed,8/17/2020,a1541000008jRz3AAE,0014100001dLFn4AAG,-74.0154149,40.7131304
Burberry,230 Vesey Street,WFC,Shopping,Clothing,Former,7/1/2020,4/2/2015,closed,8/17/2020,a1541000008jRzAAAU,0014100001dLFnKAAW,-74.0154149,40.7131304
Joie,230 Vesey Street,WFC,Shopping,Clothing,Former,11/16/2020,10/24/2016,closed,11/4/2020,a1541000008jS2YAAU,0014100001dLFuLAAW,-74.0154149,40.7131304
Babesta,230 Vesey Street,WFC,Shopping,Clothing,Former,1/31/2021,3/15/2015,closed,2/1/2021,a1541000008jRyrAAE,0014100001dLFnGAAW,-74.0154149,40.7131304
Starbucks,233 Broadway,BID NW,Restaurant/Bar,Quick Eats,Former,7/1/2020,,closed,8/21/2020,a1541000008jTp1AAE,0014100001dLCkQAAW,-74.0082925,40.7124491
The Wooly Public,233 Broadway,BID NW,Restaurant/Bar,Full Service Dining,Former,1/20/2021,1/1/2006,closed,,a1541000008jRvxAAE,0014100001dLC3nAAG,-74.0082925,40.7124491
Cohen's Fashion Optical,233 Broadway,BID NW,Shopping,Eyewear,Former,6/1/2021,10/21/2014,closed,,a1541000008jSXtAAM,0014100001dLBU5AAO,-74.0082925,40.7124491
Exchange Cleaners,25 Broad Street,BID SE,Personal/Business Services,Dry Cleaning,Former,12/1/2020,,closed,11/4/2020,a1541000008jSkLAAU,0014100001dLBVRAA4,-74.0111372,40.7060887
Guess,25 Fulton Street,SSS,Shopping,Clothing,Former,12/31/2020,,closed,1/13/2021,a1541000008jSuBAAU,0014100001dLBRLAA4,-74.003778,40.707246
Book Nook,25 Murray Street,TBS,Local Resources,Education,Former,10/4/2020,7/12/2018,closed,10/4/2020,a154100000APBMhAAP,0014100001mc6cpAAA,-74.0081429,40.7140217
Downtown Florist,25 Murray Street,TBS,Shopping,Florists,Former,7/22/2020,8/30/2012,closed,7/22/2020,a1541000008jRxhAAE,0014100001dLFRlAAO,-74.0081429,40.7140217
Chase Bank,253 Broadway,TBS,Personal/Business Services,ATM & Banking,Former,11/20/2020,,closed,8/25/2020,a1541000008jSQMAA2,0014100001dLEHpAAO,-74.007234,40.71326
Transcendental Meditation Program,26 Beaver Street,BID SE,Storefront Commercial,,Former,10/19/2020,8/14/2019,closed,10/29/2020,a152M00002BqXTRQA3,0012M00002EfCJ6QAN,-74.0119835,40.7048175
ACQUA at Peck Slip,261 Water Street,SSS,Restaurant/Bar,Full Service Dining,Former,6/12/2020,1/1/2006,closed,6/16/2020,a1541000008jRvlAAE,0014100001dLCh1AAG,-74.00172361,40.7082435
Chase Bank,270 Broadway,TBS,Personal/Business Services,ATM & Banking,Former,1/11/2021,,closed,1/11/2021,a1541000008jSQIAA2,0014100001dLEHEAA4,-74.0072147,40.7143487
Hank's Juicy Beef,270 Broadway,TBS,Restaurant/Bar,Quick Eats,Former,11/9/2020,5/10/2016,closed,11/9/2020,a1541000008jS0GAAU,0014100001dLFpqAAG,-74.0072147,40.7143487
Poké Green,275 Greenwich Street,TBS,Restaurant/Bar,Quick Eats,Former,10/4/2020,9/8/2017,closed,10/4/2020,a1541000008jTadAAE,0014100001dLD9GAAW,-74.0108719,40.7151628
Yoga Shanti,28 Warren Street,TBS,Personal/Business Services,Fitness Centers,Former,7/17/2020,5/21/2018,closed,7/20/2020,a1541000008lvvYAAQ,0014100001mc6dsAAA,-74.0079198,40.7143886
Reform Club Movement Studio,28 Warren Street,TBS,Personal/Business Services,Fitness Centers,Former,10/4/2020,10/14/2019,closed,10/16/2019,a152M00002GuJBzQAN,0012M00002GbELIQA3,-74.0079198,40.7143886
Ray's Jewelry,3 Hanover Square,BID SE,Shopping,Jewelers,Former,1/31/2021,,closed,1/12/2021,a1541000008jTe5AAE,0014100001dLBjRAAW,-74.00972569,40.7048742
Leonidas Belgian Chocolates,3 Hanover Square,BID SE,Shopping,Candy & Chocolate,Former,3/1/2021,,closed,3/3/2021,a1541000008jTD7AAM,0014100001dLBZCAA4,-74.00972569,40.7048742
Bluestone Lane Coffee,30 Broad Street,BID SE,Restaurant/Bar,Quick Eats,Former,1/15/2021,7/10/2013,closed,1/15/2021,a1541000008jSJgAAM,0014100001dLC5LAAW,-74.011535,40.706112
My.Suit,30 Broad Street,BID SE,Shopping,Clothing,Former,11/3/2020,1/16/2009,closed,11/3/2020,a1541000008jTNYAA2,0014100001dLBSjAAO,-74.011535,40.706112
Travelex Currency Services Inc.,30 Vesey Street,BID NW,Personal/Business Services,Currency Exchange,Former,7/9/2021,,closed,,a1541000008jTyNAAU,0014100001dLBdAAAW,-74.0099509,40.71209723
Godiva Chocolatier,33 Maiden Lane,BID NE,Shopping,Candy & Chocolate,Former,10/1/2020,,closed,10/1/2020,a1541000008jSsPAAU,0014100001dLCK6AAO,-74.0084933,40.7091363
7-Eleven,38 Warren Street,TBS,Restaurant/Bar,Quick Eats,Former,3/13/2020,,closed,,a1541000008jS70AAE,0014100001dLE7oAAG,-74.00845479,40.71452058
Sleepy's,38 Warren Street,TBS,Shopping,Home Goods,Former,3/13/2020,,closed,,a1541000008jTmhAAE,0014100001dLCkcAAG,-74.00845479,40.71452058
Namira Inc.,38 Warren Street,TBS,Shopping,Office Supplies & Equipment,Former,11/1/2020,7/22/2019,closed,1/11/2021,a152M00001uI8GJQA0,0012M00002DHf1TQAT,-74.00845479,40.71452058
C & J Luxury Inc.,39 John Street,BID NE,Personal/Business Services,Nail Salons; Spas,Former,9/30/2020,,closed,9/30/2020,a1541000008jSMoAAM,0014100001dLBd2AAG,-74.008132,40.709435
Jupioca,39 John Street,BID NE,Restaurant/Bar,Quick Eats,Former,9/30/2020,5/15/2013,closed,,a1541000008jUBDAA2,0014100001dLCK2AAO,-74.008132,40.709435
9 to 5 Fashion Outlet,39 John Street,BID NE,Shopping,Clothing,Former,9/30/2020,1/14/2013,closed,9/30/2020,a1541000008jS79AAE,0014100001dLC41AAG,-74.008132,40.709435
S&M Universal Jewelry,39 John Street,BID NE,Shopping,Jewelers,Former,9/30/2020,,closed,9/30/2020,a1541000008jTiOAAU,0014100001dLCGEAA4,-74.008132,40.709435
Fabio Doti Hair Salon,40 Exchange Place,BID SE,Personal/Business Services,Hair Salons & Barber Shops,Former,10/2/2020,,closed,10/2/2020,a1541000008jSknAAE,0014100001dLFMUAA4,-74,40
Minas Shoe Repair Inc.,40 Exchange Place,BID SE,Personal/Business Services,Shoe Repair & Shine,Former,11/4/2020,1/25/2018,closed,11/4/2020,a1541000008jTLJAA2,0014100001dLC5dAAG,-74,40
Marie Costa News Stand,40 Exchange Place,BID SE,Shopping,Grocery & Convenience,Former,10/2/2020,,closed,10/2/2020,a1541000008jTGkAAM,0014100001dLCkiAAG,-74,40
Water Street Greenmarket,40 Water Street,BID SE,Shopping,Greenmarkets,Former,10/2/2020,6/24/2015,closed,,a1541000008jRzNAAU,0014100001dLFoMAAW,-74.010253,40.703526
RHX Super Value,41 John Street,BID NE,Shopping,Department Stores,Former,11/13/2020,2/6/2017,closed,11/4/2020,a1541000008jS0FAAU,0014100001dLC5SAAW,-74.008056,40.709349
Sola Lab,45 Beekman Street,BID NE,Restaurant/Bar,Full Service Dining,Former,11/16/2020,10/25/2018,closed,11/17/2020,a154100000ANxf2AAD,0014100001yTTXTAA4,-74.0055219,40.71022062
American Foliage,47 Ann Street,BID NE,Shopping,Florists,Former,12/1/2020,9/28/2015,closed,1/11/2021,a1541000008jRzXAAU,0014100001dLCknAAG,-74.00687667,40.71037373
China Chalet,47 Broadway,BID SW,Restaurant/Bar,Full Service Dining,Former,7/3/2020,,closed,,a1541000008jSQoAAM,0014100001dLCMiAAO,-74.012974,40.706401
NY Gifts,47 Broadway,BID SW,Shopping,Cards & Stationary,Former,9/1/2020,4/3/2013,closed,,a1541000008jTTeAAM,0014100001dLCMhAAO,-74.012974,40.706401
Augustine,5 Beekman Street,BID NE,Restaurant/Bar,Full Service Dining,Former,7/31/2020,11/29/2016,closed,7/30/2020,a1541000008jS2iAAE,0014100001dLEJTAA4,-74.006806,40.711262
Schnipper's Quality Kitchen,50 Murray Street,BID NW,Restaurant/Bar,Quick Eats,Former,5/22/2020,9/1/2016,closed,,a1541000008jUXYAA2,0014100001dLGFdAAO,-74.0100543,40.7141901
AT&T,50 Murray Street,BID NW,Shopping,Electronics,Former,6/1/2021,6/24/2016,closed,7/12/2021,a1541000008jS0cAAE,0014100001dLDohAAG,-74.0100543,40.7141901
Radisson Wall Street,50 William Street,BID SE,Hotel,,Former,6/1/2021,8/14/2019,closed,7/20/2021,a152M00002BpdwzQAB,0012M00002EXN1BQAX,-74.00891,40.706686
Amalgamated Bank,52 Broadway,BID SE,Personal/Business Services,ATM & Banking,Former,11/1/2020,11/1/2003,closed,11/11/2020,a1541000008jSB6AAM,0014100001dLBZnAAO,-74.01250549,40.70658083
Diwanekhaas,53 Nassau Street,BID NE,Restaurant/Bar,Quick Eats,Former,12/1/2020,,closed,12/7/2020,a1541000008jSezAAE,0014100001dLBQXAA4,-74.0090596,40.70897937
Amish Market Tribeca,53 Park Place,BID NW,Shopping,Grocery & Convenience,Former,9/26/2020,1/1/2005,closed,9/18/2020,a1541000008jRvgAAE,0014100001dLBUiAAO,-74.01023639,40.71379976
Sale & Pepe Caterers,55 Broadway,BID SW,Restaurant/Bar,Quick Eats,Former,12/31/2020,,closed,1/4/2021,a1541000008jTikAAE,0014100001dLCCeAAO,-74.013103,40.706846
Starbucks,55 Liberty Street,BID NE,Restaurant/Bar,Quick Eats,Former,10/16/2020,,closed,10/26/2020,a1541000008jTp0AAE,0014100001dLCAzAAO,-74.0093796,40.7088662
DeRose Method Tribeca,55 Murray Street,TBS,Personal/Business Services,Fitness Centers,Former,10/4/2020,,closed,10/4/2020,a1541000008jSduAAE,0014100001dLFVQAA4,-74.009678,40.714278
Jacobi Barber Shop,55 Nassau Street,BID NE,Personal/Business Services,Hair Salons & Barber Shops,Former,10/30/2020,,closed,11/4/2020,a1541000008jT3DAAU,0014100001dLBUzAAO,-74.00900543,40.70906084
Green Healthy Food Cafe,56 Pine Street,BID SE,Restaurant/Bar,Quick Eats,Former,4/1/2020,4/1/2019,closed,8/12/2020,a152M00000kTyVjQAK,0012M0000285gaAQAQ,-74.008381,40.706772
Manhattan Proper,6 Murray Street,BID NW,Restaurant/Bar,Full Service Dining,Former,6/30/2021,8/21/2012,closed,7/12/2021,a1541000008jTGLAA2,0014100001dLBe4AAG,-74.0080159,40.71330796
Murphy's Tavern,6 Stone Street,BID SE,Restaurant/Bar,Drinks & Barfare,Former,2/24/2021,4/1/2011,closed,2/24/2021,a1541000008jTNDAA2,0014100001dLBtsAAG,-74.0125661,40.70399907
Cobbler Express,60 Wall Street,BID SE,Personal/Business Services,Shoe Repair & Shine,Former,5/10/2021,,closed,5/10/2021,a1541000008jSXeAAM,0014100001dLCekAAG,-74.008536,40.706205
60 Wall Street Atrium,60 Wall Street,BID SE,Point of Interest,"Public Spaces, Parks, & Plazas",Former,5/10/2021,,closed,5/10/2021,a1541000008jS6gAAE,0014100001dLF7SAAW,-74.008536,40.706205
The Country Cafe,60 Wall Street,BID SE,Restaurant/Bar,Quick Eats,Former,5/10/2021,,closed,5/10/2021,a1541000008jTtoAAE,0014100001dLBs4AAG,-74.008536,40.706205
Starbucks,60 Wall Street,BID SE,Restaurant/Bar,Quick Eats,Former,5/10/2021,,closed,5/10/2021,a1541000008jTp9AAE,0014100001dLC7CAAW,-74.008536,40.706205
Martin News,60 Wall Street,BID SE,Shopping,Grocery & Convenience,Former,5/10/2021,,closed,5/10/2021,a1541000008jTHYAA2,0014100001dLBo3AAG,-74.008536,40.706205
Shobha,63 Broadway,BID SW,Personal/Business Services,Eyebrows,Former,10/2/2020,6/16/2015,closed,10/2/2020,a1541000008jRzHAAU,0014100001dLFd0AAG,-74.012578,40.707395
PROOF Coffee Roasters,65 Nassau Street,BID NE,Restaurant/Bar,Quick Eats,Former,7/14/2021,11/23/2015,closed,9/30/2020,a1541000008jTcDAAU,0014100001dLFovAAG,-74.0086743,40.7094986
Vin Sur Vingt,66 West Broadway,TBS,Restaurant/Bar,Drinks & Barfare; Full Service Dining,Former,6/26/2020,10/1/2017,closed,6/27/2020,a1541000008jUB0AAM,0014100001dLEFlAAO,-74.0099756,40.71479064
Oaxaca Taqueria,67 Wall Street,BID SE,Restaurant/Bar,Quick Eats,Former,12/1/2020,12/15/2015,closed,11/10/2020,a1541000008jTUkAAM,0014100001dLE2JAAW,-74.0083779,40.7055787
R&R Coffee,70 Fulton Street,BID NE,Restaurant/Bar,Quick Eats,Former,6/1/2020,7/31/2012,closed,8/17/2020,a1541000008jTdMAAU,0014100001dLBj3AAG,-74.00539203,40.70890622
Juice Brothers,70 Pine Street,BID SE,Restaurant/Bar,Quick Eats,Former,11/2/2020,,closed,11/3/2020,a1541000008jT6NAAU,0014100001dLFwHAAW,-74.0077715,40.7065047
Signature Bank,71 Broadway,BID SW,Personal/Business Services,ATM & Banking,Former,11/9/2020,,closed,11/6/2020,a1541000008jTlvAAE,0014100001dLCkhAAG,-73.9795163,40.7624779
T-Mobile,71 Nassau Street,BID NE,Shopping,Electronics,Former,9/30/2020,10/27/2008,closed,9/30/2020,a1541000008jTx2AAE,0014100001dLBTbAAO,-74.008546,40.709758
Galli Theater,74 Warren Street,TBS,Point of Interest,Attractions & Landmarks,Former,10/4/2020,9/18/2018,closed,7/23/2019,a152M0000207LuiQAE,0012M00002DHmHIQA1,-74.01010077,40.71524033
Latin Social,75 Maiden Lane,BID NE,Restaurant/Bar,Full Service Dining,Former,7/16/2021,6/22/2017,closed,7/26/2021,a1541000008jS3cAAE,0014100001dLFqdAAG,-74.0076347,40.70769198
75 Club,75 Murray Street,TBS,Restaurant/Bar,Drinks & Barfare,Former,8/4/2020,12/19/2017,closed,8/4/2020,a1541000008jS6sAAE,0014100001dLFqeAAG,-74.010548,40.7148194
Warren 77,77 Warren Street,TBS,Restaurant/Bar,Drinks & Barfare,Former,5/1/2020,5/28/2009,closed,5/13/2020,a1541000008jRwWAAU,0014100001dLELCAA4,-74.01030731,40.71513884
Green Apple Cleaners,8 Spruce Street,SBB,Personal/Business Services,Dry Cleaning,Former,7/19/2021,9/1/2017,closed,7/20/2021,a152M00002KSblcQAD,0012M00002PMzsQQAT,,
Gregory's Coffee,80 Broad Street,BID SE,Restaurant/Bar,Quick Eats,Former,9/15/2021,11/4/2014,closed,9/15/2021,a1541000008jStkAAE,0014100001dLEGiAAO,-74.0118572,40.7043408
NYC Footcare,80 Maiden Lane,BID SE,Local Resources,Urgent Care / Hospital,Former,10/2/2020,,closed,10/2/2020,a1541000008jTTxAAM,0014100001dLDzkAAG,-74.0077735,40.7071307
Mike's Noodle House,80 Nassau Street,BID NE,Restaurant/Bar,Quick Eats,Former,10/5/2020,8/20/2014,closed,11/17/2020,a1541000008jTL2AAM,0014100001dLCenAAG,-74.008055,40.709829
Monster Deals,80 Nassau Street,BID NE,Shopping,Souvenir & Gift Shops,Former,4/30/2021,9/9/2019,closed,9/10/2019,a152M00002GWpHzQAL,0012M00002FqG5IQAV,-74.008055,40.709829
Xtend Barre,80 Warren Street,TBS,Personal/Business Services,Fitness Centers,Former,9/28/2020,6/6/2017,closed,,a1541000008jS3WAAU,0014100001dLFw6AAG,-74.0101787,40.7154179
Carne Mare,Pier 17,SSS,Restaurant/Bar,Full Service Dining,Current,,6/10/2021,opened,6/3/2021,a152M00002MplSJQAZ,0012M00002VYOfWQAX,-74.00201136,40.7058275
150 Market,81 Fulton Street,BID NE,Restaurant/Bar,Quick Eats,Former,8/1/2020,,closed,8/17/2020,a1541000008jS53AAE,0014100001dLBPsAAO,-74.00594178,40.70939409
Fulton Haircutters,82 Fulton Street,BID NE,Personal/Business Services,Hair Salons & Barber Shops,Former,9/30/2020,,closed,9/30/2020,a1541000008jSp7AAE,0014100001dLCLlAAO,-74.0058365,40.7091006
Bennie's Thai Café,82 Fulton Street,BID NE,Restaurant/Bar,Full Service Dining,Former,7/26/2020,7/26/1996,closed,,a1541000008jSIIAA2,0014100001dLCEXAA4,-74.0058365,40.7091006
Asian Wok Chinese Restaurant,82 Fulton Street,BID NE,Restaurant/Bar,Quick Eats,Former,9/30/2020,9/5/2012,closed,1/12/2021,a1541000008jRxlAAE,0014100001dLBdaAAG,-74.0058365,40.7091006
Tandoor Palace,82 Fulton Street,BID NE,Restaurant/Bar,Quick Eats,Former,12/1/2020,,closed,1/4/2021,a1541000008jTsIAAU,0014100001dLC7jAAG,-74.0058365,40.7091006
NY City Buyers,82 Fulton Street,BID NE,Shopping,Jewelers,Former,9/30/2020,7/9/2013,closed,9/30/2020,a1541000008jRy8AAE,0014100001dLC7kAAG,-74.0058365,40.7091006
Taslima Newsstand,82 Fulton Street,BID NE,Shopping,Grocery & Convenience,Former,10/30/2020,,closed,11/4/2020,a1541000008jTsPAAU,0014100001dLCN7AAO,-74.0058365,40.7091006
AKA Wall Street,84 William Street,BID NE,Hotel,,Former,8/24/2020,6/27/2016,closed,9/30/2020,a1541000008jS0fAAE,0014100001dLFryAAG,-74.0076891,40.7079777
Blue Ribbon Federal Grill,84 William Street,BID NE,Restaurant/Bar,Full Service Dining,Former,8/24/2020,3/16/2017,closed,9/30/2020,a1541000008jSJaAAM,0014100001dLBn3AAG,-74.0076891,40.7079777
AKA Tribeca,85 West Broadway,TBS,Hotel,,Former,6/4/2021,2/4/2009,closed,7/16/2021,a1541000008jRwNAAU,0014100001dLEHSAA4,-74.009183,40.715144
9/11 Tribute Museum,88 Greenwich Street,BID SW,Point of Interest,Museums/Galleries,Current,8/2/2021,1/12/2010,closed,8/5/2021,a1541000008jRwfAAE,0014100001dLEY6AAO,-74.0143621,40.7081175
Boundless Plains Espresso,88 Greenwich Street,BID SW,Restaurant/Bar,Quick Eats,Former,10/16/2020,9/29/2017,closed,10/1/2020,a1541000008jS3tAAE,0014100001dLFwVAAW,-74.0143621,40.7081175
Petropolis,88 Greenwich Street,BID SW,Shopping,"Pets Store, Supplies & Services",Current,9/30/2021,,closed,9/7/2021,a1541000008jTZWAA2,0014100001dLCTZAA4,-74.0143621,40.7081175
Nassau Electronics,88 Nassau Street,BID NE,Shopping,Electronics,Former,3/31/2021,,closed,11/16/2020,a1541000008jTNyAAM,0014100001dLDrWAAW,-74.0077645,40.7100124
Children's Tumbling,9 Murray Street,TBS,Local Resources,Recreational & Youth Activities,Former,10/4/2020,,closed,10/4/2020,a1541000008jSQhAAM,0014100001dLCUCAA4,-74.008054,40.713454
Kaede,90 Chambers Street,TBS,Restaurant/Bar,Full Service Dining,Former,9/28/2020,8/16/2014,closed,10/1/2020,a1541000008jT6tAAE,0014100001dLEEpAAO,-74.00742998,40.7145956
Bluestone Lane Coffee,90 Water Street,BID SE,Restaurant/Bar,Quick Eats,Former,1/22/2021,1/7/2015,closed,1/15/2021,a1541000008jSJhAAM,0014100001dLCFsAAO,-74.0085431,40.7047585
Capital One Bank,90 West Broadway,TBS,Personal/Business Services,ATM & Banking,Former,5/20/2020,,closed,2/28/2020,a1541000008jSNuAAM,0014100001dLD4WAAW,-74.00949576,40.71553359
William Nail Spa N.Y.,90 William Street,BID NE,Personal/Business Services,Nail Salons,Former,8/2/2021,10/26/2010,closed,8/4/2021,a1541000008jUEKAA2,0014100001dLBUkAAO,-74.0074723,40.7080704
Abey Nails & Spa,92 Chambers Street,TBS,Personal/Business Services,Nail Salons,Former,10/6/2020,7/16/2012,closed,10/6/2020,a1541000008jS7zAAE,0014100001dLEItAAO,-74.00809623,40.71433216
Racines NY,94 Chambers Street,TBS,Restaurant/Bar,Full Service Dining,Former,7/30/2021,4/18/2014,closed,7/19/2021,a1541000008jTdUAAU,0014100001dLEF1AAO,-74.007514,40.714628
T.D. Ameritrade,96 Broadway,BID SE,Personal/Business Services,Investor,Former,4/19/2021,3/7/2013,closed,4/21/2021,a1541000008jTrxAAE,0014100001dLFRqAAO,-74.011103,40.7079445
Sophie's Cuban Cuisine,96 Chambers Street,TBS,Restaurant/Bar,Quick Eats,Former,8/21/2020,1/1/2008,closed,8/21/2020,a1541000008jRwBAAU,0014100001dLEErAAO,-74.00760288,40.71467545
Tribeca Hair Studio,98 Chambers Street,TBS,Personal/Business Services,Hair Salons & Barber Shops,Former,10/6/2020,,closed,10/6/2020,a1541000008jTyaAAE,0014100001dLF7vAAG,-74.007725,40.714627
Uriel Shoe Repair,99 Nassau Street,BID NE,Personal/Business Services,Shoe Repair & Shine,Former,10/30/2020,,closed,11/4/2020,a1541000008jU9oAAE,0014100001dLC3FAAW,-74.007586,40.710504
Pearl Alley,Pier 17,SSS,Restaurant/Bar,Drinks & Barfare,Current,,8/1/2021,opened,,a152M00002PeFDaQAN,0012M00002aKjO4QAK,-74.00201136,40.7058275
NYC Check Express,99 Nassau Street,BID NE,Personal/Business Services,ATM & Banking,Former,12/24/2020,7/8/2011,closed,1/11/2021,a1541000008jTTpAAM,0014100001dLC1vAAG,-74.007586,40.710504
U Tea,99 Nassau Street,BID NE,Restaurant/Bar,Quick Eats,Former,3/1/2021,12/2/2019,closed,3/1/2021,a152M00002HNMKUQA5,0012M00002Hr9iFQAR,-74.007586,40.710504
"Tansey Tang Jewelry, Gemstone & Gifts",99 Nassau Street,BID NE,Shopping,Jewelers,Former,9/30/2020,,closed,9/30/2020,a1541000008jTsJAAU,0014100001dLCfRAAW,-74.007586,40.710504
Superdry,One Seaport Plaza,BID NE,Shopping,Clothing,Former,7/16/2021,4/21/2011,closed,9/30/2020,a1541000008jRx8AAE,0014100001dLCePAAW,-74.004251,40.70662
Bar Way?,Pier 17,SSS,Restaurant/Bar,Full Service Dining,Former,12/31/2020,7/20/2019,closed,1/15/2021,a1541000008jS0HAAU,0014100001dLFpzAAG,-74.0037097,40.7065616